{"type": "FeatureCollection", "features": [ {"type": "Feature", "properties": {"norad_id": 66911, "name": "1998-067XX", "group": "stations", "lat": -23.413351800540564, "lon": 134.8715602475705, "alt_km": 418.33499818992914, "timestamp": "2025-12-10T04:57:28.382084+00:00", "meta": {"OBJECT_NAME": "1998-067XX", "OBJECT_ID": "1998-067XX", "EPOCH": "2025-12-09T02:48:25.040736", "MEAN_MOTION": 15.51276485, "ECCENTRICITY": 0.00057034, "INCLINATION": 51.6296, "RA_OF_ASC_NODE": 160.3494, "ARG_OF_PERICENTER": 191.2268, "MEAN_ANOMALY": 168.8595, "EPHEMERIS_TYPE": 0, "CLASSIFICATION_TYPE": "U", "NORAD_CAT_ID": 66911, "ELEMENT_SET_NO": 999, "REV_AT_EPOCH": 104, "BSTAR": 0.0014245982, "MEAN_MOTION_DOT": 0.00085582, "MEAN_MOTION_DDOT": 0}, "tle": {"line1": "1 66911U 98067XX  25343.11695649  .00085582  00000+0  14246-2 0  9997", "line2": "2 66911  51.6296 160.3494 0005703 191.2268 168.8595 15.51276485  1046"}}, "geometry": {"type": "Point", "coordinates": [134.8715602475705, -23.413351800540564]}}, {"type": "Feature", "properties": {"norad_id": 66912, "name": "1998-067XY", "group": "stations", "lat": -33.53375989433872, "lon": 123.2912143376943, "alt_km": 419.4159886262514, "timestamp": "2025-12-10T04:57:28.382094+00:00", "meta": {"OBJECT_NAME": "1998-067XY", "OBJECT_ID": "1998-067XY", "EPOCH": "2025-12-08T19:07:24.168000", "MEAN_MOTION": 15.50590071, "ECCENTRICITY": 0.00050436, "INCLINATION": 51.6301, "RA_OF_ASC_NODE": 161.961, "ARG_OF_PERICENTER": 202.8278, "MEAN_ANOMALY": 157.2488, "EPHEMERIS_TYPE": 0, "CLASSIFICATION_TYPE": "U", "NORAD_CAT_ID": 66912, "ELEMENT_SET_NO": 999, "REV_AT_EPOCH": 99, "BSTAR": 0.0009627216, "MEAN_MOTION_DOT": 0.00056065, "MEAN_MOTION_DDOT": 0}, "tle": {"line1": "1 66912U 98067XY  25342.79680750  .00056065  00000+0  96272-3 0  9992", "line2": "2 66912  51.6301 161.9610 0005043 202.8278 157.2488 15.50590071   993"}}, "geometry": {"type": "Point", "coordinates": [123.2912143376943, -33.53375989433872]}}]}